[{"OBJECT_NAME":"HJS-6B","OBJECT_ID":"2025-067B","EPOCH":"2026-03-09T22:47:53.244384","MEAN_MOTION":15.37735006,"ECCENTRICITY":0.00109528,"INCLINATION":54.9906,"RA_OF_ASC_NODE":108.3708,"ARG_OF_PERICENTER":80.4529,"MEAN_ANOMALY":279.7736,"EPHEMERIS_TYPE":0,"CLASSIFICATION_TYPE":"U","NORAD_CAT_ID":63429,"ELEMENT_SET_NO":999,"REV_AT_EPOCH":5275,"BSTAR":0.00024552355,"MEAN_MOTION_DOT":8.86e-5,"MEAN_MOTION_DDOT":0},{"OBJECT_NAME":"SL-3 R\/B","OBJECT_ID":"1983-075B","EPOCH":"2026-03-09T22:44:04.814016","MEAN_MOTION":15.38425255,"ECCENTRICITY":0.00201513,"INCLINATION":97.6147,"RA_OF_ASC_NODE":73.5342,"ARG_OF_PERICENTER":224.8963,"MEAN_ANOMALY":135.0652,"EPHEMERIS_TYPE":0,"CLASSIFICATION_TYPE":"U","NORAD_CAT_ID":14208,"ELEMENT_SET_NO":999,"REV_AT_EPOCH":33019,"BSTAR":0.0003432682,"MEAN_MOTION_DOT":0.00013017,"MEAN_MOTION_DDOT":0}]
